CCSDS_OEM_VERS = 2.0
CREATION_DATE = 2020-04-06 16:49:26.114132
ORIGINATOR = ISAE-SUPAERO


META_START
OBJECT_NAME = Thibault-Sat
OBJECT_ID = Thibault-Sat
CENTER_NAME = Earth
REF_FRAME = EME2000
TIME_SYSTEM = UTC
START_TIME = 2019-02-22T18:30:00Z
USEABLE_START_TIME = 2019-02-22T18:30:00Z
USEABLE_STOP_TIME = 2019-02-22T20:10:00Z
STOP_TIME = 2019-02-22T20:10:00Z
INTERPOLATION = lagrange
INTERPOLATION_DEGREE = 5
META_STOP


2019-02-22T19:25:26Z 5.5017907e+06 -3.5701143e+06 -2.6468279e+06 -2.9559666e+03 5.4446035e+02 -6.8773477e+03

2019-02-22T19:25:27Z 5.4988316e+06 -3.5695678e+06 -2.6537038e+06 -2.9621638e+03 5.4848249e+02 -6.8743616e+03

2019-02-22T19:25:28Z 5.4958663e+06 -3.5690173e+06 -2.6605767e+06 -2.9683576e+03 5.5250401e+02 -6.8713678e+03

2019-02-22T19:25:29Z 5.4928949e+06 -3.5684628e+06 -2.6674465e+06 -2.9745481e+03 5.5652490e+02 -6.8683663e+03

2019-02-22T19:25:30Z 5.4899172e+06 -3.5679043e+06 -2.6743134e+06 -2.9807353e+03 5.6054517e+02 -6.8653570e+03

2019-02-22T19:25:31Z 5.4869334e+06 -3.5673417e+06 -2.6811772e+06 -2.9869191e+03 5.6456481e+02 -6.8623400e+03

2019-02-22T19:25:32Z 5.4839434e+06 -3.5667752e+06 -2.6880381e+06 -2.9930995e+03 5.6858382e+02 -6.8593152e+03

2019-02-22T19:25:33Z 5.4809472e+06 -3.5662046e+06 -2.6948959e+06 -2.9992766e+03 5.7260218e+02 -6.8562827e+03

2019-02-22T19:25:34Z 5.4779448e+06 -3.5656299e+06 -2.7017506e+06 -3.0054503e+03 5.7661991e+02 -6.8532425e+03

2019-02-22T19:25:35Z 5.4749363e+06 -3.5650513e+06 -2.7086024e+06 -3.0116206e+03 5.8063698e+02 -6.8501946e+03

2019-02-22T19:25:36Z 5.4719216e+06 -3.5644687e+06 -2.7154510e+06 -3.0177875e+03 5.8465340e+02 -6.8471390e+03

2019-02-22T19:25:37Z 5.4689007e+06 -3.5638820e+06 -2.7222966e+06 -3.0239511e+03 5.8866916e+02 -6.8440756e+03

2019-02-22T19:25:38Z 5.4658737e+06 -3.5632913e+06 -2.7291392e+06 -3.0301112e+03 5.9268426e+02 -6.8410045e+03

2019-02-22T19:25:39Z 5.4628405e+06 -3.5626966e+06 -2.7359786e+06 -3.0362679e+03 5.9669869e+02 -6.8379258e+03

2019-02-22T19:25:40Z 5.4598012e+06 -3.5620979e+06 -2.7428150e+06 -3.0424212e+03 6.0071245e+02 -6.8348393e+03

2019-02-22T19:25:41Z 5.4567557e+06 -3.5614952e+06 -2.7496483e+06 -3.0485710e+03 6.0472554e+02 -6.8317451e+03

2019-02-22T19:25:42Z 5.4537040e+06 -3.5608885e+06 -2.7564785e+06 -3.0547174e+03 6.0873794e+02 -6.8286432e+03

2019-02-22T19:25:43Z 5.4506462e+06 -3.5602777e+06 -2.7633056e+06 -3.0608604e+03 6.1274966e+02 -6.8255336e+03

2019-02-22T19:25:44Z 5.4475823e+06 -3.5596630e+06 -2.7701296e+06 -3.0670000e+03 6.1676069e+02 -6.8224164e+03

2019-02-22T19:25:45Z 5.4445122e+06 -3.5590442e+06 -2.7769504e+06 -3.0731360e+03 6.2077103e+02 -6.8192914e+03

2019-02-22T19:25:46Z 5.4414360e+06 -3.5584214e+06 -2.7837682e+06 -3.0792687e+03 6.2478067e+02 -6.8161588e+03

2019-02-22T19:25:47Z 5.4383537e+06 -3.5577947e+06 -2.7905827e+06 -3.0853978e+03 6.2878960e+02 -6.8130184e+03

2019-02-22T19:25:48Z 5.4352652e+06 -3.5571639e+06 -2.7973942e+06 -3.0915235e+03 6.3279783e+02 -6.8098704e+03

2019-02-22T19:25:49Z 5.4321707e+06 -3.5565291e+06 -2.8042025e+06 -3.0976457e+03 6.3680534e+02 -6.8067148e+03

2019-02-22T19:25:50Z 5.4290700e+06 -3.5558903e+06 -2.8110076e+06 -3.1037644e+03 6.4081214e+02 -6.8035514e+03

2019-02-22T19:25:51Z 5.4259631e+06 -3.5552474e+06 -2.8178096e+06 -3.1098796e+03 6.4481822e+02 -6.8003804e+03

2019-02-22T19:25:52Z 5.4228502e+06 -3.5546006e+06 -2.8246084e+06 -3.1159913e+03 6.4882358e+02 -6.7972017e+03

2019-02-22T19:25:53Z 5.4197311e+06 -3.5539498e+06 -2.8314040e+06 -3.1220995e+03 6.5282820e+02 -6.7940154e+03

2019-02-22T19:25:54Z 5.4166060e+06 -3.5532950e+06 -2.8381964e+06 -3.1282042e+03 6.5683209e+02 -6.7908214e+03

2019-02-22T19:25:55Z 5.4134747e+06 -3.5526361e+06 -2.8449856e+06 -3.1343054e+03 6.6083524e+02 -6.7876198e+03

2019-02-22T19:25:56Z 5.4103374e+06 -3.5519733e+06 -2.8517716e+06 -3.1404030e+03 6.6483764e+02 -6.7844105e+03

2019-02-22T19:25:57Z 5.4071939e+06 -3.5513065e+06 -2.8585544e+06 -3.1464971e+03 6.6883930e+02 -6.7811936e+03

2019-02-22T19:25:58Z 5.4040444e+06 -3.5506356e+06 -2.8653340e+06 -3.1525876e+03 6.7284021e+02 -6.7779690e+03

2019-02-22T19:25:59Z 5.4008888e+06 -3.5499608e+06 -2.8721104e+06 -3.1586746e+03 6.7684036e+02 -6.7747368e+03

2019-02-22T19:26:00Z 5.3977270e+06 -3.5492819e+06 -2.8788835e+06 -3.1647581e+03 6.8083974e+02 -6.7714969e+03

2019-02-22T19:26:01Z 5.3945592e+06 -3.5485991e+06 -2.8856534e+06 -3.1708380e+03 6.8483836e+02 -6.7682495e+03

2019-02-22T19:26:02Z 5.3913854e+06 -3.5479123e+06 -2.8924200e+06 -3.1769143e+03 6.8883621e+02 -6.7649944e+03

2019-02-22T19:26:03Z 5.3882054e+06 -3.5472214e+06 -2.8991834e+06 -3.1829870e+03 6.9283329e+02 -6.7617316e+03

2019-02-22T19:26:04Z 5.3850194e+06 -3.5465266e+06 -2.9059435e+06 -3.1890561e+03 6.9682959e+02 -6.7584613e+03

2019-02-22T19:26:05Z 5.3818273e+06 -3.5458278e+06 -2.9127003e+06 -3.1951217e+03 7.0082510e+02 -6.7551833e+03

2019-02-22T19:26:06Z 5.3786292e+06 -3.5451249e+06 -2.9194538e+06 -3.2011837e+03 7.0481982e+02 -6.7518977e+03

2019-02-22T19:26:07Z 5.3754249e+06 -3.5444181e+06 -2.9262041e+06 -3.2072420e+03 7.0881375e+02 -6.7486046e+03

2019-02-22T19:26:08Z 5.3722147e+06 -3.5437073e+06 -2.9329510e+06 -3.2132968e+03 7.1280689e+02 -6.7453038e+03

2019-02-22T19:26:09Z 5.3689983e+06 -3.5429925e+06 -2.9396947e+06 -3.2193479e+03 7.1679922e+02 -6.7419954e+03

2019-02-22T19:26:10Z 5.3657760e+06 -3.5422737e+06 -2.9464350e+06 -3.2253954e+03 7.2079074e+02 -6.7386794e+03

2019-02-22T19:26:11Z 5.3625476e+06 -3.5415509e+06 -2.9531720e+06 -3.2314392e+03 7.2478146e+02 -6.7353558e+03

2019-02-22T19:26:12Z 5.3593131e+06 -3.5408242e+06 -2.9599057e+06 -3.2374795e+03 7.2877135e+02 -6.7320247e+03

2019-02-22T19:26:13Z 5.3560726e+06 -3.5400934e+06 -2.9666361e+06 -3.2435160e+03 7.3276043e+02 -6.7286859e+03

2019-02-22T19:26:14Z 5.3528261e+06 -3.5393586e+06 -2.9733631e+06 -3.2495490e+03 7.3674869e+02 -6.7253396e+03

2019-02-22T19:26:15Z 5.3495735e+06 -3.5386199e+06 -2.9800868e+06 -3.2555782e+03 7.4073611e+02 -6.7219857e+03

2019-02-22T19:26:16Z 5.3463149e+06 -3.5378772e+06 -2.9868071e+06 -3.2616038e+03 7.4472270e+02 -6.7186242e+03

2019-02-22T19:26:17Z 5.3430503e+06 -3.5371304e+06 -2.9935240e+06 -3.2676258e+03 7.4870846e+02 -6.7152551e+03

2019-02-22T19:26:18Z 5.3397797e+06 -3.5363797e+06 -3.0002376e+06 -3.2736440e+03 7.5269337e+02 -6.7118785e+03

2019-02-22T19:26:19Z 5.3365030e+06 -3.5356251e+06 -3.0069478e+06 -3.2796586e+03 7.5667743e+02 -6.7084943e+03

2019-02-22T19:26:20Z 5.3332203e+06 -3.5348664e+06 -3.0136546e+06 -3.2856694e+03 7.6066065e+02 -6.7051025e+03

2019-02-22T19:26:21Z 5.3299317e+06 -3.5341037e+06 -3.0203580e+06 -3.2916766e+03 7.6464301e+02 -6.7017032e+03

2019-02-22T19:26:22Z 5.3266370e+06 -3.5333371e+06 -3.0270580e+06 -3.2976801e+03 7.6862450e+02 -6.6982964e+03

2019-02-22T19:26:23Z 5.3233363e+06 -3.5325665e+06 -3.0337545e+06 -3.3036798e+03 7.7260514e+02 -6.6948820e+03

2019-02-22T19:26:24Z 5.3200296e+06 -3.5317919e+06 -3.0404477e+06 -3.3096758e+03 7.7658490e+02 -6.6914600e+03

2019-02-22T19:26:25Z 5.3167170e+06 -3.5310133e+06 -3.0471375e+06 -3.3156681e+03 7.8056379e+02 -6.6880305e+03

2019-02-22T19:26:26Z 5.3133983e+06 -3.5302308e+06 -3.0538238e+06 -3.3216567e+03 7.8454180e+02 -6.6845935e+03

2019-02-22T19:26:27Z 5.3100737e+06 -3.5294442e+06 -3.0605066e+06 -3.3276415e+03 7.8851893e+02 -6.6811489e+03

2019-02-22T19:26:28Z 5.3067430e+06 -3.5286537e+06 -3.0671861e+06 -3.3336226e+03 7.9249517e+02 -6.6776968e+03

2019-02-22T19:26:29Z 5.3034064e+06 -3.5278592e+06 -3.0738620e+06 -3.3395999e+03 7.9647052e+02 -6.6742372e+03

2019-02-22T19:26:30Z 5.3000638e+06 -3.5270608e+06 -3.0805345e+06 -3.3455735e+03 8.0044497e+02 -6.6707701e+03

2019-02-22T19:26:31Z 5.2967153e+06 -3.5262584e+06 -3.0872036e+06 -3.3515433e+03 8.0441853e+02 -6.6672954e+03

2019-02-22T19:26:32Z 5.2933607e+06 -3.5254520e+06 -3.0938691e+06 -3.3575093e+03 8.0839117e+02 -6.6638133e+03

2019-02-22T19:26:33Z 5.2900002e+06 -3.5246416e+06 -3.1005312e+06 -3.3634715e+03 8.1236291e+02 -6.6603236e+03

2019-02-22T19:26:34Z 5.2866338e+06 -3.5238272e+06 -3.1071898e+06 -3.3694300e+03 8.1633374e+02 -6.6568264e+03

2019-02-22T19:26:35Z 5.2832614e+06 -3.5230089e+06 -3.1138449e+06 -3.3753846e+03 8.2030364e+02 -6.6533217e+03

2019-02-22T19:26:36Z 5.2798830e+06 -3.5221866e+06 -3.1204964e+06 -3.3813355e+03 8.2427263e+02 -6.6498096e+03

2019-02-22T19:26:37Z 5.2764987e+06 -3.5213604e+06 -3.1271445e+06 -3.3872825e+03 8.2824068e+02 -6.6462899e+03

2019-02-22T19:26:38Z 5.2731085e+06 -3.5205301e+06 -3.1337890e+06 -3.3932258e+03 8.3220781e+02 -6.6427627e+03

2019-02-22T19:26:39Z 5.2697123e+06 -3.5196960e+06 -3.1404300e+06 -3.3991652e+03 8.3617399e+02 -6.6392281e+03

2019-02-22T19:26:40Z 5.2663101e+06 -3.5188578e+06 -3.1470674e+06 -3.4051008e+03 8.4013924e+02 -6.6356859e+03

2019-02-22T19:26:41Z 5.2629021e+06 -3.5180157e+06 -3.1537014e+06 -3.4110325e+03 8.4410354e+02 -6.6321363e+03

2019-02-22T19:26:42Z 5.2594881e+06 -3.5171696e+06 -3.1603317e+06 -3.4169604e+03 8.4806689e+02 -6.6285793e+03

2019-02-22T19:26:43Z 5.2560681e+06 -3.5163195e+06 -3.1669585e+06 -3.4228845e+03 8.5202929e+02 -6.6250147e+03

2019-02-22T19:26:44Z 5.2526423e+06 -3.5154655e+06 -3.1735817e+06 -3.4288047e+03 8.5599073e+02 -6.6214427e+03

2019-02-22T19:26:45Z 5.2492105e+06 -3.5146076e+06 -3.1802014e+06 -3.4347210e+03 8.5995121e+02 -6.6178632e+03

2019-02-22T19:26:46Z 5.2457729e+06 -3.5137456e+06 -3.1868175e+06 -3.4406335e+03 8.6391072e+02 -6.6142763e+03

2019-02-22T19:26:47Z 5.2423293e+06 -3.5128797e+06 -3.1934299e+06 -3.4465421e+03 8.6786925e+02 -6.6106819e+03

2019-02-22T19:26:48Z 5.2388798e+06 -3.5120099e+06 -3.2000388e+06 -3.4524468e+03 8.7182681e+02 -6.6070800e+03

2019-02-22T19:26:49Z 5.2354244e+06 -3.5111361e+06 -3.2066441e+06 -3.4583477e+03 8.7578339e+02 -6.6034707e+03

2019-02-22T19:26:50Z 5.2319631e+06 -3.5102583e+06 -3.2132458e+06 -3.4642446e+03 8.7973898e+02 -6.5998540e+03

2019-02-22T19:26:51Z 5.2284959e+06 -3.5093766e+06 -3.2198438e+06 -3.4701377e+03 8.8369359e+02 -6.5962298e+03

2019-02-22T19:26:52Z 5.2250228e+06 -3.5084909e+06 -3.2264382e+06 -3.4760268e+03 8.8764720e+02 -6.5925982e+03

